     2.100          NAVIGATION                              RINEX VERSION / TYPE
fic2rin                                 05/15/2015 00:21:26 PGM / RUN BY / DATE
                                                            END OF HEADER
11 15  5 14 10  0  0.0 -.578102655709D-03 -.261479726760D-11  .000000000000D+00
     .660000000000D+02 -.283125000000D+02  .667027784385D-08 -.565851567978D+00
    -.138953328133D-05  .157415964641D-01  .409781932831D-05  .515372925377D+04
     .381600000000D+06 -.176951289177D-06 -.202761618462D+01  .912696123123D-07
     .892766749284D+00  .268750000000D+03  .140249119763D+01 -.955611233615D-08
     .478591363823D-10  .100000000000D+01  .184400000000D+04  .000000000000D+00
     .240000000000D+01  .000000000000D+00 -.121071934700D-07  .660000000000D+02
     .374406000000D+06  .400000000000D+01
12 15  5 14 10  0  0.0  .292827375233D-03  .318323145621D-11  .000000000000D+00
     .510000000000D+02 -.235312500000D+02  .352443252105D-08 -.116226319620D+01
    -.125542283058D-05  .558645580895D-02  .125598162413D-04  .515369198608D+04
     .381600000000D+06  .189989805222D-06  .255123247378D+01 -.316649675369D-07
     .989830269581D+00  .152375000000D+03  .588005128934D+00 -.757031533402D-08
     .457161899771D-10  .100000000000D+01  .184400000000D+04  .000000000000D+00
     .240000000000D+01  .000000000000D+00 -.121071934700D-07  .510000000000D+02
     .374406000000D+06  .400000000000D+01
14 15  5 14 10  0  0.0  .636372715235D-04 -.284217094304D-11  .000000000000D+00
     .440000000000D+02  .849062500000D+02  .467340895196D-08  .202966077940D+01
     .418350100517D-05  .808576587588D-02  .555254518986D-05  .515359114647D+04
     .381600000000D+06 -.707805156708D-07  .486283431703D+00 -.171363353729D-06
     .967065091834D+00  .274406250000D+03 -.197849468415D+01 -.821677083292D-08
     .207865801302D-09  .100000000000D+01  .184400000000D+04  .000000000000D+00
     .240000000000D+01  .000000000000D+00 -.931322574615D-08  .440000000000D+02
     .374406000000D+06  .400000000000D+01
16 15  5 14 10  0  0.0 -.129298307002D-03  .375166564481D-11  .000000000000D+00
     .700000000000D+01 -.236562500000D+02  .344050045351D-08  .302043416740D+01
    -.122748315334D-05  .819859723561D-02  .118054449558D-04  .515356078339D+04
     .381600000000D+06 -.428408384323D-07  .256990314424D+01 -.651925802231D-07
     .990389859153D+00  .169281250000D+03  .295445687802D+00 -.748174021594D-08
     .835749098019D-10  .100000000000D+01  .184400000000D+04  .000000000000D+00
     .240000000000D+01  .000000000000D+00 -.102445483208D-07  .700000000000D+01
     .374406000000D+06  .400000000000D+01
17 15  5 14 10  0  0.0 -.171097926795D-03 -.193267624127D-11  .000000000000D+00
     .670000000000D+02  .316562500000D+02  .442768443083D-08  .209903305692D+01
     .166706740856D-05  .100966611644D-01  .603124499321D-05  .515375651741D+04
     .381600000000D+06  .186264514923D-07 -.268703506692D+01 -.273808836937D-06
     .972469209235D+00  .267250000000D+03 -.200859558561D+01 -.807140763510D-08
     .549308595194D-09  .100000000000D+01  .184400000000D+04  .000000000000D+00
     .240000000000D+01  .000000000000D+00 -.107102096081D-07  .670000000000D+02
     .374406000000D+06  .400000000000D+01
18 15  5 14 10  0  0.0  .401345547289D-03  .295585778076D-11  .000000000000D+00
     .320000000000D+02  .696875000000D+01  .510735559900D-08 -.268662740870D+01
     .270083546638D-06  .161889175652D-01  .128448009491D-04  .515361243057D+04
     .381600000000D+06  .316649675369D-06 -.656576606560D+00 -.614672899246D-07
     .925207582358D+00  .106843750000D+03 -.196548985738D+01 -.806105006081D-08
     .182150444440D-10  .100000000000D+01  .184400000000D+04  .000000000000D+00
     .240000000000D+01  .000000000000D+00 -.111758708954D-07  .320000000000D+02
     .374406000000D+06  .400000000000D+01
20 15  5 14 10  0  0.0  .319780781865D-03  .363797880709D-11  .000000000000D+00
     .430000000000D+02  .728125000000D+01  .523164649050D-08  .206811268727D+01
     .344589352608D-06  .563667854294D-02  .134054571390D-04  .515581354523D+04
     .381600000000D+06  .111758708954D-07 -.709007568577D+00 -.132247805595D-06
     .926349967772D+00  .101125000000D+03  .121874411964D+01 -.819034116058D-08
    -.871464871438D-10  .100000000000D+01  .184400000000D+04  .000000000000D+00
     .240000000000D+01  .000000000000D+00 -.838190317154D-08  .430000000000D+02
     .374406000000D+06  .400000000000D+01
21 15  5 14 10  0  0.0 -.445888843387D-03 -.352429196937D-11  .000000000000D+00
     .180000000000D+02 -.560625000000D+02  .544629828876D-08 -.158272433322D+01
    -.249221920967D-05  .225694518303D-01  .510551035404D-05  .515356324768D+04
     .381600000000D+06  .497326254845D-06 -.170028848967D+01  .257045030594D-06
     .933467482622D+00  .257562500000D+03 -.191075639104D+01 -.848713923770D-08
    -.166435504135D-09  .100000000000D+01  .184400000000D+04  .000000000000D+00
     .240000000000D+01  .000000000000D+00 -.116415321827D-07  .180000000000D+02
     .374406000000D+06  .400000000000D+01
22 15  5 14 10  0  0.0  .350128393620D-03  .397903932026D-11  .000000000000D+00
     .150000000000D+02  .259375000000D+01  .527200531447D-08 -.312310450410D+01
     .577419996262D-07  .791490217671D-02  .124163925648D-04  .515369592094D+04
     .381600000000D+06  .894069671631D-07 -.655383481296D+00 -.143423676491D-06
     .923019448974D+00  .120218750000D+03 -.205228858914D+01 -.819248410699D-08
    -.867893294096D-10  .100000000000D+01  .184400000000D+04  .000000000000D+00
     .240000000000D+01  .000000000000D+00 -.176951289177D-07  .150000000000D+02
     .374406000000D+06  .400000000000D+01
23 15  5 14 10  0  0.0 -.108245294541D-03 -.250111042988D-11  .000000000000D+00
     .780000000000D+02  .926562500000D+02  .516771525608D-08  .918650193971D+00
     .509992241859D-05  .101460622391D-01  .511668622494D-05  .515362150955D+04
     .381600000000D+06  .260770320892D-07  .414634935575D+00  .117346644402D-06
     .948915768802D+00  .272312500000D+03 -.268664910670D+01 -.867143262855D-08
     .817891211309D-10  .100000000000D+01  .184400000000D+04  .000000000000D+00
     .240000000000D+01  .000000000000D+00 -.200234353542D-07  .780000000000D+02
     .374406000000D+06  .400000000000D+01
25 15  5 14 10  0  0.0 -.290512107313D-04 -.375166564481D-11  .000000000000D+00
     .100000000000D+03 -.393125000000D+02  .365479509403D-08 -.183619370358D+01
    -.197440385818D-05  .461145967711D-02  .125281512737D-04  .515369061852D+04
     .381600000000D+06  .242143869400D-07  .250476951972D+01 -.122934579849D-06
     .978311821700D+00  .147468750000D+03  .716566747173D+00 -.759781647955D-08
     .260725145963D-10  .100000000000D+01  .184400000000D+04  .000000000000D+00
     .240000000000D+01  .000000000000D+00  .558793544769D-08  .100000000000D+03
     .374406000000D+06  .400000000000D+01
26 15  5 14 10  0  0.0  .293063931167D-04  .216004991671D-11  .000000000000D+00
     .780000000000D+02 -.365000000000D+02  .417160233541D-08  .263686063994D+01
    -.183843076229D-05  .296253245324D-03  .116508454084D-04  .515357448578D+04
     .381600000000D+06  .782310962677D-07  .250241860158D+01  .596046447754D-07
     .960427400948D+00  .157093750000D+03  .117099899980D+01 -.790104339589D-08
     .510735559900D-10  .100000000000D+01  .184400000000D+04  .000000000000D+00
     .340000000000D+01  .000000000000D+00  .745058059692D-08  .780000000000D+02
     .374406000000D+06  .400000000000D+01
27 15  5 14 10  0  0.0  .718412920833D-04  .272848410532D-11  .000000000000D+00
     .350000000000D+02  .393125000000D+02  .451161649836D-08  .218039975589D+01
     .202842056751D-05  .243302923627D-02  .643171370029D-05  .515369120407D+04
     .381600000000D+06 -.689178705215D-07 -.273470606508D+01  .689178705215D-07
     .967384225950D+00  .256500000000D+03  .199869993227D+00 -.820641325862D-08
     .537165232231D-09  .100000000000D+01  .184400000000D+04  .000000000000D+00
     .240000000000D+01  .000000000000D+00  .139698386192D-08  .350000000000D+02
     .374406000000D+06  .400000000000D+01
28 15  5 14 10  0  0.0  .439726281911D-03  .261479726760D-11  .000000000000D+00
     .190000000000D+02 -.101250000000D+02  .333513892192D-08  .293810918541D+01
    -.538304448128D-06  .195100186393D-01  .125318765640D-04  .515370106888D+04
     .381600000000D+06  .150874257088D-06  .257526466732D+01 -.167638063431D-07
     .989003992969D+00  .147656250000D+03 -.166388559753D+01 -.715458373142D-08
     .907180644858D-10  .100000000000D+01  .184400000000D+04  .000000000000D+00
     .240000000000D+01  .000000000000D+00 -.111758708954D-07  .190000000000D+02
     .374406000000D+06  .400000000000D+01
29 15  5 14 10  0  0.0  .610398594290D-03  .238742359215D-11  .000000000000D+00
     .250000000000D+02  .346562500000D+02  .442875590403D-08 -.151971914332D+01
     .182166695595D-05  .130180187989D-02  .659562647343D-05  .515375949478D+04
     .381600000000D+06 -.465661287308D-07 -.267768300614D+01  .130385160446D-07
     .973306279256D+00  .259718750000D+03 -.623872863700D+00 -.812069540242D-08
     .562166273625D-09  .100000000000D+01  .184400000000D+04  .000000000000D+00
     .240000000000D+01  .000000000000D+00 -.977888703346D-08  .250000000000D+02
     .374406000000D+06  .400000000000D+01
30 15  5 14 10  0  0.0 -.597336329520D-04  .522959453519D-11  .000000000000D+00
     .730000000000D+02 -.615312500000D+02  .476055543910D-08 -.475420483766D+00
    -.335276126862D-05  .135557784233D-02  .586360692978D-05  .515373951721D+04
     .381600000000D+06  .111758708954D-07  .153192166486D+01 -.931322574615D-08
     .955880095649D+00  .265281250000D+03  .286598002122D+01 -.835749098019D-08
    -.521450291926D-09  .100000000000D+01  .184400000000D+04  .000000000000D+00
     .240000000000D+01  .000000000000D+00  .325962901115D-08  .730000000000D+02
     .374406000000D+06  .400000000000D+01
